$$SOE
2459580.500000000, A.D. 2022-Jan-01 00:00:00.0000, 5.090569753373672E+07, -7.140293362514033E+08, -1.393134399096656E+08,
2459587.500000000, A.D. 2022-Jan-08 00:00:00.0000, 5.905426206717227E+07, -7.129759184102175E+08, -1.375044641029031E+08,
2459594.500000000, A.D. 2022-Jan-15 00:00:00.0000, 6.719540288594857E+07, -7.118329316787446E+08, -1.356782101862155E+08,
2459601.500000000, A.D. 2022-Jan-22 00:00:00.0000, 7.532807529692426E+07, -7.106002418532959E+08, -1.338348548906725E+08,
2459608.500000000, A.D. 2022-Jan-29 00:00:00.0000, 8.345122995349021E+07, -7.092777251970783E+08, -1.319745785671107E+08,
2459615.500000000, A.D. 2022-Feb-05 00:00:00.0000, 9.156381082283570E+07, -7.078652692868118E+08, -1.300975650407815E+08,
2459622.500000000, A.D. 2022-Feb-12 00:00:00.0000, 9.966475533159147E+07, -7.063627749255110E+08, -1.282040017496346E+08,
2459629.500000000, A.D. 2022-Feb-19 00:00:00.0000, 1.077529953651358E+08, -7.047701567524908E+08, -1.262940798512696E+08,
2459636.500000000, A.D. 2022-Feb-26 00:00:00.0000, 1.158274578091669E+08, -7.030873432735665E+08, -1.243679942375358E+08,
2459643.500000000, A.D. 2022-Mar-05 00:00:00.0000, 1.238870647927643E+08, -7.013142769281967E+08, -1.224259435220221E+08,
2459650.500000000, A.D. 2022-Mar-12 00:00:00.0000, 1.319307338547245E+08, -6.994509142590429E+08, -1.204681300264099E+08,
2459657.500000000, A.D. 2022-Mar-19 00:00:00.0000, 1.399573781042110E+08, -6.974972261555902E+08, -1.184947597701841E+08,
2459664.500000000, A.D. 2022-Mar-26 00:00:00.0000, 1.479659063981270E+08, -6.954531981774167E+08, -1.165060424665062E+08,
2459671.500000000, A.D. 2022-Apr-02 00:00:00.0000, 1.559552236030315E+08, -6.933188310126035E+08, -1.145021915352863E+08,
2459678.500000000, A.D. 2022-Apr-09 00:00:00.0000, 1.639242312136570E+08, -6.910941410661725E+08, -1.124834241582352E+08,
2459685.500000000, A.D. 2022-Apr-16 00:00:00.0000, 1.718718286850774E+08, -6.887791605242720E+08, -1.104499613553815E+08,
2459692.500000000, A.D. 2022-Apr-23 00:00:00.0000, 1.797969142094150E+08, -6.863739358095838E+08, -1.084020278781475E+08,
2459699.500000000, A.D. 2022-Apr-30 00:00:00.0000, 1.876983830666380E+08, -6.838785266726313E+08, -1.063398519308921E+08,
2459706.500000000, A.D. 2022-May-07 00:00:00.0000, 1.955751266121053E+08, -6.812930078918008E+08, -1.042636651630765E+08,
2459713.500000000, A.D. 2022-May-14 00:00:00.0000, 2.034260332904193E+08, -6.786174705434897E+08, -1.021737028112249E+08,
2459720.500000000, A.D. 2022-May-21 00:00:00.0000, 2.112499896446482E+08, -6.758520220835023E+08, -1.000702037424066E+08,
2459727.500000000, A.D. 2022-May-28 00:00:00.0000, 2.190458808421699E+08, -6.729967861983603E+08, -9.795341043368790E+07,
2459734.500000000, A.D. 2022-Jun-04 00:00:00.0000, 2.268125909942645E+08, -6.700519027392478E+08, -9.582356893854389E+07,
2459741.500000000, A.D. 2022-Jun-11 00:00:00.0000, 2.345490034140734E+08, -6.670175277362727E+08, -9.368092885330376E+07,
2459748.500000000, A.D. 2022-Jun-18 00:00:00.0000, 2.422540008514847E+08, -6.638938334795182E+08, -9.152574328602776E+07,
2459755.500000000, A.D. 2022-Jun-25 00:00:00.0000, 2.499264657342285E+08, -6.606810086996739E+08, -8.935826883312383E+07,
2459762.500000000, A.D. 2022-Jul-02 00:00:00.0000, 2.575652805491095E+08, -6.573792589135342E+08, -8.717876558123043E+07,
2459769.500000000, A.D. 2022-Jul-09 00:00:00.0000, 2.651693287535905E+08, -6.539888067570100E+08, -8.498749715554768E+07,
2459776.500000000, A.D. 2022-Jul-16 00:00:00.0000, 2.727374961624531E+08, -6.505098912226162E+08, -8.278473072089380E+07,
2459783.500000000, A.D. 2022-Jul-23 00:00:00.0000, 2.802686706108831E+08, -6.469427657234919E+08, -8.057073672725615E+07,
2459790.500000000, A.D. 2022-Jul-30 00:00:00.0000, 2.877617399777616E+08, -6.432876983373655E+08, -7.834578868134966E+07,
2459797.500000000, A.D. 2022-Aug-06 00:00:00.0000, 2.952155921678957E+08, -6.395449735818270E+08, -7.611016322105879E+07,
2459804.500000000, A.D. 2022-Aug-13 00:00:00.0000, 3.026291162300912E+08, -6.357148929663463E+08, -7.386414019194204E+07,
2459811.500000000, A.D. 2022-Aug-20 00:00:00.0000, 3.100012030416792E+08, -6.317977748244325E+08, -7.160800262276816E+07,
2459818.500000000, A.D. 2022-Aug-27 00:00:00.0000, 3.173307456275071E+08, -6.277939541524396E+08, -6.934203666549733E+07,
2459825.500000000, A.D. 2022-Sep-03 00:00:00.0000, 3.246166393611652E+08, -6.237037825654665E+08, -6.706653153130677E+07,
2459832.500000000, A.D. 2022-Sep-10 00:00:00.0000, 3.318577821383533E+08, -6.195276283463244E+08, -6.478177942885202E+07,
2459839.500000000, A.D. 2022-Sep-17 00:00:00.0000, 3.390530745515912E+08, -6.152658765891551E+08, -6.248807550755841E+07,
2459846.500000000, A.D. 2022-Sep-24 00:00:00.0000, 3.462014201265137E+08, -6.109189294883811E+08, -6.018571781567624E+07,
2459853.500000000, A.D. 2022-Oct-01 00:00:00.0000, 3.533017258596200E+08, -6.064872067951070E+08, -5.787500729706305E+07,
2459860.500000000, A.D. 2022-Oct-08 00:00:00.0000, 3.603529034647366E+08, -6.019711459188502E+08, -5.555624782159370E+07,
2459867.500000000, A.D. 2022-Oct-15 00:00:00.0000, 3.673538703962582E+08, -5.973712004755566E+08, -5.322974606598958E+07,
2459874.500000000, A.D. 2022-Oct-22 00:00:00.0000, 3.743035484672240E+08, -5.926878389657954E+08, -5.089581118283436E+07,
2459881.500000000, A.D. 2022-Oct-29 00:00:00.0000, 3.812008625596678E+08, -5.879215461762494E+08, -4.855475469910729E+07,
2459888.500000000, A.D. 2022-Nov-05 00:00:00.0000, 3.880447415264856E+08, -5.830728245630746E+08, -4.620689061308533E+07,
2459895.500000000, A.D. 2022-Nov-12 00:00:00.0000, 3.948341193199899E+08, -5.781421943499526E+08, -4.385253540610516E+07,
2459902.500000000, A.D. 2022-Nov-19 00:00:00.0000, 4.015679356276385E+08, -5.731301932950273E+08, -4.149200798139271E+07,
2459909.500000000, A.D. 2022-Nov-26 00:00:00.0000, 4.082451362769442E+08, -5.680373765240848E+08, -3.912562958664441E+07,
2459916.500000000, A.D. 2022-Dec-03 00:00:00.0000, 4.148646735753298E+08, -5.628643164415140E+08, -3.675372373664385E+07,
2459923.500000000, A.D. 2022-Dec-10 00:00:00.0000, 4.214255066301091E+08, -5.576116027003285E+08, -3.437661613862026E+07,
2459930.500000000, A.D. 2022-Dec-17 00:00:00.0000, 4.279266016728840E+08, -5.522798422561243E+08, -3.199463462467816E+07,
2459937.500000000, A.D. 2022-Dec-24 00:00:00.0000, 4.343669324973087E+08, -5.468696595705370E+08, -2.960810910670966E+07,
2459944.500000000, A.D. 2022-Dec-31 00:00:00.0000, 4.407454813675483E+08, -5.413816968563579E+08, -2.721737157779258E+07,
2459951.500000000, A.D. 2023-Jan-07 00:00:00.0000, 4.470612405200536E+08, -5.358166134017211E+08, -2.482275609267500E+07,
2459958.500000000, A.D. 2023-Jan-14 00:00:00.0000, 4.533132122915637E+08, -5.301750834766019E+08, -2.242459850630084E+07,
2459965.500000000, A.D. 2023-Jan-21 00:00:00.0000, 4.595004072283108E+08, -5.244577959942373E+08, -2.002323617049766E+07,
2459972.500000000, A.D. 2023-Jan-28 00:00:00.0000, 4.656218438442091E+08, -5.186654561227155E+08, -1.761900794124269E+07,
2459979.500000000, A.D. 2023-Feb-04 00:00:00.0000, 4.716765498195341E+08, -5.127987858190320E+08, -1.521225422993547E+07,
2459986.500000000, A.D. 2023-Feb-11 00:00:00.0000, 4.776635628448541E+08, -5.068585234794438E+08, -1.280331694977129E+07,
2459993.500000000, A.D. 2023-Feb-18 00:00:00.0000, 4.835819310467938E+08, -5.008454235294072E+08, -1.039253941860405E+07,
2460000.500000000, A.D. 2023-Feb-25 00:00:00.0000, 4.894307132582271E+08, -4.947602561148363E+08, -7.980266255515367E+06,
2460007.500000000, A.D. 2023-Mar-04 00:00:00.0000, 4.952089792349099E+08, -4.886038068757067E+08, -5.566843278808475E+06,
2460014.500000000, A.D. 2023-Mar-11 00:00:00.0000, 5.009158098469960E+08, -4.823768768012751E+08, -3.152617407867700E+06,
2460021.500000000, A.D. 2023-Mar-18 00:00:00.0000, 5.065502972923176E+08, -4.760802822160930E+08, -7.379365770978630E+05,
2460028.500000000, A.D. 2023-Mar-25 00:00:00.0000, 5.121115455345955E+08, -4.697148549436548E+08, 1.676850315699786E+06,
2460035.500000000, A.D. 2023-Apr-01 00:00:00.0000, 5.175986713911081E+08, -4.632814422539518E+08, 4.091393419878960E+06,
2460042.500000000, A.D. 2023-Apr-08 00:00:00.0000, 5.230108056545809E+08, -4.567809053698808E+08, 6.505342058139414E+06,
2460049.500000000, A.D. 2023-Apr-15 00:00:00.0000, 5.283470919122287E+08, -4.502141176388617E+08, 8.918345092459142E+06,
2460056.500000000, A.D. 2023-Apr-22 00:00:00.0000, 5.336066848706936E+08, -4.435819654215564E+08, 1.133005111444324E+07,
2460063.500000000, A.D. 2023-Apr-29 00:00:00.0000, 5.387887509215906E+08, -4.368853494445145E+08, 1.374010839326945E+07,
2460070.500000000, A.D. 2023-May-06 00:00:00.0000, 5.438924691874009E+08, -4.301251848355170E+08, 1.614816488814503E+07,
2460077.500000000, A.D. 2023-May-13 00:00:00.0000, 5.489170320708724E+08, -4.233024007352439E+08, 1.855386834168744E+07,
2460084.500000000, A.D. 2023-May-20 00:00:00.0000, 5.538616455419151E+08, -4.164179399764315E+08, 2.095686639238071E+07,
2460091.500000000, A.D. 2023-May-27 00:00:00.0000, 5.587255293552999E+08, -4.094727588600244E+08, 2.335680668565543E+07,
2460098.500000000, A.D. 2023-Jun-03 00:00:00.0000, 5.635079172565564E+08, -4.024678270024261E+08, 2.575333698009908E+07,
2460105.500000000, A.D. 2023-Jun-10 00:00:00.0000, 5.682080571996238E+08, -3.954041272677124E+08, 2.814610524513420E+07,
2460112.500000000, A.D. 2023-Jun-17 00:00:00.0000, 5.728252116650293E+08, -3.882826558449770E+08, 3.053475973672587E+07,
2460119.500000000, A.D. 2023-Jun-24 00:00:00.0000, 5.773586583983335E+08, -3.811044224151737E+08, 3.291894902596484E+07,
2460126.500000000, A.D. 2023-Jul-01 00:00:00.0000, 5.818076918219516E+08, -3.738704495793496E+08, 3.529832202470373E+07,
2460133.500000000, A.D. 2023-Jul-08 00:00:00.0000, 5.861716234465320E+08, -3.665817707264832E+08, 3.767252822879320E+07,
2460140.500000000, A.D. 2023-Jul-15 00:00:00.0000, 5.904497800050592E+08, -3.592394291712164E+08, 4.004121806463012E+07,
2460147.500000000, A.D. 2023-Jul-22 00:00:00.0000, 5.946415028305647E+08, -3.518444795960450E+08, 4.240404293129356E+07,
$$EOE